OBJECT_NAME,OBJECT_ID,EPOCH,MEAN_MOTION,ECCENTRICITY,INCLINATION,RA_OF_ASC_NODE,ARG_OF_PERICENTER,MEAN_ANOMALY,EPHEMERIS_TYPE,CLASSIFICATION_TYPE,NORAD_CAT_ID,ELEMENT_SET_NO,REV_AT_EPOCH,BSTAR,MEAN_MOTION_DOT,MEAN_MOTION_DDOT
DONGPO 10,2022-167H,2026-05-16T15:10:08.499648,15.33772024,.00044348,97.6918,305.4569,211.2422,148.8557,0,U,54689,999,19052,.26996846E-3,.8736E-4,0
JILIN-1 GAOFEN 03D48,2022-167P,2026-05-16T15:29:02.008896,15.34506962,.00057058,97.6851,304.8388,218.7350,141.3484,0,U,54695,999,19055,.26934192E-3,.8923E-4,0
STAR VIBE,2023-001A,2026-05-16T15:14:41.516736,15.41704365,.00050286,97.3190,200.9904,211.4276,148.6671,0,U,55009,999,18736,.29328713E-3,.12303E-3,0
BRO-8,2023-001C,2026-05-16T15:10:51.409344,15.47071344,.0005391,97.3238,201.4071,218.3288,141.7580,0,U,55011,999,18732,.52708241E-3,.2665E-3,0
CONNECTA T1.2,2023-001D,2026-05-16T14:11:24.971136,15.48324653,.00063573,97.3295,206.7752,193.0503,167.0585,0,U,55012,999,18765,.52383305E-3,.27671E-3,0
BIRKELAND,2023-001G,2026-05-16T15:04:00.058944,15.39488630,.00061687,97.3362,204.5287,203.8793,156.2167,0,U,55015,999,18749,.20962942E-3,.8146E-4,0
ION SCV-008,2023-001AU,2026-05-16T13:11:42.954144,15.28158076,.00164018,97.5698,232.3521,122.2239,238.0593,0,U,55051,999,18650,.201666E-3,.5478E-4,0
ION SCV-007,2023-001BD,2026-05-16T13:43:52.124448,14.77522067,.00137674,97.9023,200.2117,79.7980,280.4783,0,U,55060,999,18158,.45356041E-4,.273E-5,0
HUYGENS,2023-001CN,2026-05-16T15:04:06.851712,15.39486997,.0009605,97.3268,203.7993,186.3479,173.7647,0,U,55093,999,18751,.20115658E-3,.782E-4,0
SHARJAHSAT-1,2023-001CZ,2026-05-16T15:22:55.945920,15.47848893,.00055065,97.3192,204.9966,200.2313,159.8720,0,U,55104,999,18761,.31766738E-3,.16443E-3,0
HORUS 1,2023-025A,2026-05-16T14:59:11.875200,15.23580296,.00022509,97.3472,211.8807,108.8515,251.2966,0,U,55690,999,17924,.2030187E-3,.4787E-4,0
HORUS 2,2023-032A,2026-05-16T14:16:16.012128,15.23422265,.00028523,97.3544,212.6262,139.5092,220.6358,0,U,55844,999,17667,.19173086E-3,.4495E-4,0
GLOBAL-19,2023-041B,2026-05-15T18:24:08.615232,15.38325031,.0004836,42.0029,31.0367,121.3837,238.7476,0,U,55982,999,17693,.24142075E-3,.9073E-4,0
BRO-9,2023-054H,2026-05-16T12:13:51.283776,15.82533946,.00078117,97.2994,52.6549,122.9418,237.2603,0,U,56185,999,17405,.10021254E-2,.213104E-2,0
ION SCV-010,2023-054Q,2026-05-16T10:09:57.353472,15.25900070,.00117291,97.3822,26.3304,324.0359,36.0089,0,U,56192,999,17135,.14245535E-3,.3585E-4,0
TELEOS-2,2023-057C,2026-05-16T10:19:15.750624,14.96411881,.00006763,9.9883,75.3978,267.1041,92.9095,0,U,56310,999,16803,.28238216E-3,.3978E-4,0
SNIPE 4,2023-072B,2026-05-16T12:56:58.297632,15.41041030,.00070811,97.5276,341.5699,84.7908,275.4146,0,U,56744,999,16523,.48427552E-3,.19951E-3,0
2023-072G,2023-072G,2026-05-16T13:13:28.642080,15.48724294,.00056328,97.4927,343.1873,100.2765,259.9121,0,U,56749,999,16556,.53570534E-3,.28694E-3,0
GEISAT PRECURSOR,2023-084C,2026-05-16T15:44:05.993088,15.34186579,.0007282,97.6181,276.5906,98.8683,261.3384,0,U,56934,999,16269,.19031818E-3,.6218E-4,0
BLACKJACK ACES-2,2023-084Z,2026-05-16T13:03:03.893184,15.18318933,.0002657,97.6163,271.5926,94.9084,265.2453,0,U,56955,999,16237,.24010546E-3,.4857E-4,0
BLACKJACK ACES-1,2023-084AA,2026-05-16T12:45:15.295392,15.18166592,.00015537,97.6153,271.3585,95.3982,264.7429,0,U,56956,999,11209,.27047096E-3,.5456E-4,0
ION SCV-011,2023-084AB,2026-05-16T13:57:00.154656,15.28513321,.00081425,98.1375,320.9415,140.3049,219.8786,0,U,56957,999,16098,.15854465E-3,.4314E-4,0
GHOST-3,2023-084AC,2026-05-16T08:18:02.473344,15.46788286,.000692,97.6176,283.2454,58.3256,301.8667,0,U,56958,999,16309,.31548284E-3,.15739E-3,0
TOMORROW-R2,2023-084AG,2026-05-16T09:35:22.250112,15.89257486,.00018662,97.5923,296.5232,278.2489,81.8571,0,U,56962,999,16398,.65625356E-3,.187333E-2,.14814989E-4
AFR-1,2023-084AJ,2026-05-16T14:39:14.596704,15.28262958,.00120573,97.6230,272.5573,91.1707,269.0914,0,U,56964,999,16240,.13074264E-3,.3527E-4,0
METEOR-M2 3,2023-091A,2026-05-16T14:54:08.566272,14.24043823,.00027757,98.6106,192.2413,257.9283,102.1585,0,U,57166,999,15002,.10184319E-4,-.2E-6,0
UMKA 1 (RS40S),2023-091G,2026-05-16T13:45:41.133600,15.20429576,.00117874,97.5071,195.3978,223.9895,136.0403,0,U,57172,999,15920,.22612682E-3,.487E-4,0
2023-091H,2023-091H,2026-05-16T14:57:53.580384,15.27907685,.00092128,97.5068,199.5747,216.2768,143.7847,0,U,57173,999,15948,.33905825E-3,.9173E-4,0
