DONGPO 10               
1 54689U 22167H   26136.63204282  .00008736  00000+0  26997-3 0  9994
2 54689  97.6918 305.4569 0004434 211.2422 148.8557 15.33772024190524
JILIN-1 GAOFEN 03D48    
1 54695U 22167P   26136.64516214  .00008923  00000+0  26934-3 0  9992
2 54695  97.6851 304.8388 0005705 218.7350 141.3484 15.34506962190550
STAR VIBE               
1 55009U 23001A   26136.63520274  .00012303  00000+0  29329-3 0  9998
2 55009  97.3190 200.9904 0005028 211.4276 148.6671 15.41704365187366
BRO-8                   
1 55011U 23001C   26136.63253946  .00026650  00000+0  52708-3 0  9997
2 55011  97.3238 201.4071 0005391 218.3288 141.7580 15.47071344187324
CONNECTA T1.2           
1 55012U 23001D   26136.59126124  .00027671  00000+0  52383-3 0  9993
2 55012  97.3295 206.7752 0006357 193.0503 167.0585 15.48324653187651
BIRKELAND               
1 55015U 23001G   26136.62777846  .00008146  00000+0  20963-3 0  9998
2 55015  97.3362 204.5287 0006168 203.8793 156.2167 15.39488630187493
ION SCV-008             
1 55051U 23001AU  26136.54980271  .00005478  00000+0  20167-3 0  9998
2 55051  97.5698 232.3521 0016401 122.2239 238.0593 15.28158076186506
ION SCV-007             
1 55060U 23001BD  26136.57213107  .00000273  00000+0  45356-4 0  9994
2 55060  97.9023 200.2117 0013767  79.7980 280.4783 14.77522067181581
HUYGENS                 
1 55093U 23001CN  26136.62785708  .00007820  00000+0  20116-3 0  9998
2 55093  97.3268 203.7993 0009605 186.3479 173.7647 15.39486997187518
SHARJAHSAT-1            
1 55104U 23001CZ  26136.64092530  .00016443  00000+0  31767-3 0  9992
2 55104  97.3192 204.9966 0005506 200.2313 159.8720 15.47848893187613
HORUS 1                 
1 55690U 23025A   26136.62444300  .00004787  00000+0  20302-3 0  9993
2 55690  97.3472 211.8807 0002250 108.8515 251.2966 15.23580296179248
HORUS 2                 
1 55844U 23032A   26136.59462977  .00004495  00000+0  19173-3 0  9998
2 55844  97.3544 212.6262 0002852 139.5092 220.6358 15.23422265176672
GLOBAL-19               
1 55982U 23041B   26135.76676638  .00009073  00000+0  24142-3 0  9999
2 55982  42.0029  31.0367 0004836 121.3837 238.7476 15.38325031176938
BRO-9                   
1 56185U 23054H   26136.50962134  .00213104  00000+0  10021-2 0  9993
2 56185  97.2994  52.6549 0007812 122.9418 237.2603 15.82533946174059
ION SCV-010             
1 56192U 23054Q   26136.42358047  .00003585  00000+0  14246-3 0  9998
2 56192  97.3822  26.3304 0011729 324.0359  36.0089 15.25900070171352
TELEOS-2                
1 56310U 23057C   26136.43004341  .00003978  00000+0  28238-3 0  9991
2 56310   9.9883  75.3978 0000676 267.1041  92.9095 14.96411881168038
SNIPE 4                 
1 56744U 23072B   26136.53956363  .00019951  00000+0  48428-3 0  9991
2 56744  97.5276 341.5699 0007081  84.7908 275.4146 15.41041030165238
2023-072G               
1 56749U 23072G   26136.55102595  .00028694  00000+0  53571-3 0  9997
2 56749  97.4927 343.1873 0005633 100.2765 259.9121 15.48724294165566
GEISAT PRECURSOR        
1 56934U 23084C   26136.65562492  .00006218  00000+0  19032-3 0  9995
2 56934  97.6181 276.5906 0007282  98.8683 261.3384 15.34186579162697
BLACKJACK ACES-2        
1 56955U 23084Z   26136.54379506  .00004857  00000+0  24011-3 0  9998
2 56955  97.6163 271.5926 0002657  94.9084 265.2453 15.18318933162378
BLACKJACK ACES-1        
1 56956U 23084AA  26136.53142703  .00005456  00000+0  27047-3 0  9993
2 56956  97.6153 271.3585 0001553  95.3982 264.7429 15.18166592112096
ION SCV-011             
1 56957U 23084AB  26136.58125179  .00004314  00000+0  15854-3 0  9992
2 56957  98.1375 320.9415 0008142 140.3049 219.8786 15.28513321160983
GHOST-3                 
1 56958U 23084AC  26136.34586196  .00015739  00000+0  31548-3 0  9998
2 56958  97.6176 283.2454 0006920  58.3256 301.8667 15.46788286163090
TOMORROW-R2             
1 56962U 23084AG  26136.39956308  .00187333  14815-4  65625-3 0  9991
2 56962  97.5923 296.5232 0001866 278.2489  81.8571 15.89257486163987
AFR-1                   
1 56964U 23084AJ  26136.61058561  .00003527  00000+0  13074-3 0  9991
2 56964  97.6230 272.5573 0012057  91.1707 269.0914 15.28262958162402
METEOR-M2 3             
1 57166U 23091A   26136.62093248 -.00000020  00000+0  10184-4 0  9992
2 57166  98.6106 192.2413 0002775 257.9283 102.1585 14.24043823150027
UMKA 1 (RS40S)          
1 57172U 23091G   26136.57339275  .00004870  00000+0  22613-3 0  9991
2 57172  97.5071 195.3978 0011787 223.9895 136.0403 15.20429576159202
2023-091H               
1 57173U 23091H   26136.62353681  .00009173  00000+0  33906-3 0  9993
2 57173  97.5068 199.5747 0009212 216.2768 143.7847 15.27907685159489
